#dP2020 11  2  0  0  0.00000000      96 __u+U ITR00 FIT  IAC
## 2130  86400.00000000   900.00000000 59155 0.0000000000000
+  114   C06C07C08C09C10C11C12C13C14C16C19C20C21C22C23C24C25
+        C26C27C28C29C30C32C33C34C35C36C37C38C39C40C43C44C45
+        C46E01E02E03E04E05E07E08E09E11E12E13E14E15E18E19E21
+        E24E25E26E27E30E31E33E36G01G02G03G04G05G06G07G08G09
+        G10G11G12G13G15G16G17G18G19G20G21G22G24G25G26G27G28
+        G29G30G31G32J01J02J03R01R02R03R04R05R07R08R09R11R12
+        R13R14R15R16R17R18R19R20R21R22R23R24  0  0  0  0  0
++         9  9  9  8  8  6  9  7  7  7  8  7  6  7  5  7  6
++         5  6  6  7  6  8  8  7  7  8  5 10 11 10 11  8  8
++         6  6  7  5  6  7  5  6  6  6  6  6  6  5  7  6  6
++         6  7  6  7  7  6  6  5  6  6  7  5  5  6  4  6  6
++         7  6  5  6  5  6  5  5  6  6  5  6  6  6  4  5  6
++         6  6  5  6  7  8  9  7  5  6  7  6  7  7  8  5  6
++         7  7  8  7  6  8  6  7  6  6  7  7  0  0  0  0  0
%c M  cc GPS ccc cccc cccc cccc cccc ccccc ccccc ccccc ccccc
%c cc cc ccc ccc cccc cccc cccc cccc ccccc ccccc ccccc ccccc
%f  0.0000000  0.000000000  0.00000000000  0.000000000000000
%f  0.0000000  0.000000000  0.00000000000  0.000000000000000
%i    0    0    0    0      0      0      0      0         0
%i    0    0    0    0      0      0      0      0         0
/* INFORMATION & ANALYSIS CENTER (IAC)      ULTRA-RAPID DATA
/* S/V CLOCKS ARE ALIGNED TO GNSS TIME                      
/* G:C1WC2W R:C1PC2P E:C1XC5X C:C2IC6I J:C1CC2S             
/* PCV:IGS14_2118 OL/AL:FES2004  NONE     YN ORB:CoN CLK:CoN
*  2020 11 02 22 30  0.00000000
PC06 -25179.694598  25344.007289 -22326.904482     85.445198
PC07 -14424.433566  37216.497375 -12522.425193   -156.007268
PC08  -6705.108702  21786.761078  35616.706634   -662.171746
PC09  -8977.868956  26129.122517 -31709.507930    912.627080
PC10  -3887.898889  41744.510213    793.817540   -150.263967
PC11  26315.997630  -7166.080965  -5984.207792   -726.108172
PC12  25047.052974   4343.570620  11592.001853    588.730047
PC13   6320.854074  29570.899538  29597.944639    725.547554
PC14  17840.567958 -13586.415660 -16625.973852    171.097765
PC16 -22017.386386  26003.957403 -24878.945067   -603.979423
PC19 -15244.971965  21530.309160   9093.816947    604.335912
PC20 -17617.914457   4737.985111  21114.518498   -877.823427
PC21   9562.999000  15607.028404 -21052.143566   -712.186697
PC22  -3973.434972  26244.896478  -8577.188392   -783.818511
PC23  -5327.458351 -23428.723040  14200.493796   -916.674205
PC24  20777.022566   6498.415512  17475.107066   -720.683438
PC25  10273.816651 -12790.390011  22571.776378   -813.223685
PC26  19137.009989  20114.506768   2999.677326    890.241845
PC27 -18294.012154 -10438.418273 -18325.820664    426.273836
PC28   1926.849999 -16062.496169 -22733.823359   -150.646675
PC29 -20416.521448  13066.953347  13820.251386    305.946268
PC30 -27608.959383   2045.726099  -3574.148111    398.440350
PC32  -9668.140875 -15588.256292  21036.444406   -893.432818
PC33  15176.932362 -21567.829820  -9149.265256   -826.234507
PC34  27635.679086  -2361.438863   2988.399615   -817.775309
PC35  -1662.284027  16208.799203  22658.084940   -578.171595
PC36 -10754.534988  12314.154697 -22585.629612   -851.911847
PC37 -18309.248026 -20922.546611  -2251.514765   -883.728354
PC38  -3556.190377  26112.341844  32954.431176    109.820552
PC39 -16046.744418  27697.904776 -27518.460462 999999.999999
PC40 -10650.479612  40610.077056  -2714.221373     97.132680
PC43  20771.057008 -12861.405320 -13474.227646   -444.639819
PC44  18442.871693  10038.242625  18364.670885   -136.475895
PC45   5520.549092  23388.232930 -14195.707217    272.374407
PC46 -20523.356884  -5761.275091 -17977.028249 999999.999999
PE01   3783.732720  29151.872834  -3480.690043   -974.558168
PE02  -3839.759215 -29146.005695   3398.344686    173.559683
PE03   4219.542802 -22143.704231  19182.933344   -360.700490
PE04  14115.766063  10151.486354 -23957.832080   -639.902868
PE05  20318.926402 -21302.869443   3094.498108   -332.656907
PE07 -24420.342225   8038.220098  14658.961409   -456.823771
PE08 -14286.923970  -9736.657187  24018.728079   6097.408944
PE09  24349.298795  -8369.004767 -14620.666114   5878.106782
PE11  28033.710365   2486.750555  -9169.459008   6703.897790
PE12  23706.705051  14468.490310  10233.335283   5525.534939
PE13 -28107.442849  -2627.548580   8898.368798    405.636910
PE14 -24085.788048  -4375.761596 -17275.816674  -1212.024603
PE15 -23860.119872 -14283.311624 -10122.096393    845.570167
PE18  25992.118175  -8922.982194   3059.351836  -1323.984494
PE19  -6436.163502  22701.157081 -17876.169128    118.688851
PE21  -8886.747356  20527.058108 -19381.329343   -629.898797
PE24  16901.941882    946.167629  24280.796233   -562.524241
PE25   8997.072202 -20384.561161  19498.061787   -519.465524
PE26 -15356.915636  10964.281227  22807.979036   2540.873268
PE27 -16772.980228   -272.973849 -24375.849168    100.795896
PE30 -14460.889300 -21345.612094 -14528.159978   3455.244890
PE31  14773.771949  20787.503201  15042.713493   -475.379744
PE33   5584.955579  17539.606573  23188.531997   -463.122377
PE36  15849.589784 -10548.769956 -22660.471465    486.151533
PG01 -22151.494594 -14923.530894  -1551.977512    811.079653
PG02   6811.651609  18214.116254  18746.193537   -537.642098
PG03 -12836.364133 -13298.088097  19029.149930   -343.141402
PG04 -18652.661845  -4906.221433  18282.067025   -151.554587
PG05   2795.695104  26097.718284  -3509.088955    -24.930404
PG06  -8978.006722  11809.146315  22088.981304      0.774382
PG07 -23003.678737  -3468.329715 -12923.066221   -406.378088
PG08 -10166.295575 -11400.066016 -21737.486117    -53.705348
PG09 -24069.811555   5936.955661   9492.340838   -308.543712
PG10  11759.058617 -16881.447965 -16560.941043   -495.179989
PG11 -18353.543263 -12614.116247 -14669.906750   -119.508436
PG12  10553.384534  16477.615385  17794.625389     45.629737
PG13     24.017772  15833.336355 -21440.461723     60.962418
PG15  12582.178225  10596.898023 -21242.791502   -192.677803
PG16   -404.957550 -25897.659293  -4868.287943   -231.043026
PG17 -19918.040120  15624.793084   8404.776003    348.575696
PG18  22038.969521   2001.780663 -14737.353575    316.149494
PG19 -15976.986300  16291.631713  13243.164606    -83.484450
PG20  15248.512562  -4711.433943 -21283.817571    526.172011
PG21 -16030.233637 -17477.343774 -11583.101213     64.259463
PG22 -11398.025073 -20101.616177  13424.371515   -735.292100
PG24  21216.998660  15495.142402  -5337.126674      6.961057
PG25  14910.648629   3056.212570  21544.517128     15.545694
PG26   5489.560179 -24534.761075   8137.975213    305.488484
PG27   2374.627600 -16961.066160 -20349.413866     -4.972294
PG28 -12176.209175  18014.206075 -14786.773492    660.256068
PG29  23768.734612  -2428.826850  11616.784059   -228.505336
PG30 -17543.835778   5406.690817 -19215.657148   -328.714824
PG31   7511.073579 -13299.044542  21656.479398    -78.957610
PG32  19284.538041 -16643.342219   7309.321936    363.833635
PJ01 -32712.892370  25325.500134  13020.391637   -337.648092
PJ02 -18480.798059  25652.968307 -23488.431445     -6.147095
PJ03 -30610.470731  26190.022418  17559.058157     -2.635916
PR01   1317.208897 -18484.389172  17527.314449 999999.999999
PR02 -12446.127420   -145.719825  22306.427422    452.685079
PR03 -16505.577940  15563.272554  11750.067249     24.879056
PR04 -11193.412090  22292.370624  -5334.163949     60.184341
PR05    282.384183  16519.767219 -19440.951240     60.404256
PR07  16437.037047 -15955.501220 -11144.518589    -41.123135
PR08  11119.899095 -22305.424178   5425.353203    -55.503218
PR09  15530.901177  12406.245997  15964.120074      5.652771
PR11  -1762.474589 -19835.718639  15989.930097    -43.310066
PR12 -11660.902788 -22667.635794    581.325461    176.968097
PR13 -15455.210275 -12759.124403 -15790.771043    -46.064431
PR14  -9932.537082   4855.224561 -22970.722049     57.300482
PR15   1168.419236  19287.578966 -16628.034765    106.889742
PR16  12521.660876  22300.473847    239.410376     -7.821847
PR17 -22891.349918   3755.542541  10565.867138    370.855288
PR18  -9290.663516   9364.055611  21858.544353     54.848660
PR19   8473.578500  10319.533905  21739.368039   -118.061678
PR20  23819.247164   5145.866732   7492.758749   -425.646755
PR21  22409.067865  -4097.396675 -11511.263453   -163.417458
PR22   7950.657354  -9528.334522 -22281.704787    -80.054973
PR23 -15911.748589  -8864.014668 -17858.748063    342.375941
PR24 -24145.364643  -4713.089504  -6678.744291     19.132886
EOF
